PROGRESS-MS 20          
1 52795U 22059A   22248.54405043  .00005773  00000+0  10888-3 0  9998
2 52795  51.6445 298.4897 0002890 196.2418 319.2646 15.50045901357648
SHENZHOU 14             
1 52797U 22060A   22248.33341435  .00016741  00000+0  18892-3 0  9993
2 52797  41.4719  90.7119 0006503 255.4623  92.0258 15.62094119 77295
ISS DEB                 
1 52952U 98067TP  22248.51716440  .00067564  00000+0  94589-3 0  9994
2 52952  51.6412 297.1480 0001247 260.2266  99.8584 15.56163714 10040
CSS (WENTIAN)           
1 53239U 22085A   22248.33341435  .00016741  00000+0  18892-3 0  9992
2 53239  41.4719  90.7119 0006503 255.4623  92.0258 15.62094119 77297
1998-067TQ              
1 53305U 98067TQ  22248.54566408  .00044591  00000+0  71360-3 0  9994
2 53305  51.6416 298.0785 0001289 183.4831 176.6150 15.52674715  7138
YUZGU 8                 
1 53306U 98067TR  22248.53864254  .00048517  00000+0  76350-3 0  9990
2 53306  51.6415 298.0329 0000644 181.4159 178.6830 15.53103679  7131
1998-067TS              
1 53307U 98067TS  22248.53827199  .00047743  00000+0  75150-3 0  9995
2 53307  51.6412 298.0287 0000989 143.6121 216.4936 15.53104381  7165
YUZGU 9 (RS3S)          
1 53308U 98067TT  22248.53808165  .00046594  00000+0  73435-3 0  9995
2 53308  51.6414 298.0287 0000768 144.9336 215.1705 15.53079796  7199
